[{"OBJECT_NAME":"STARLINK-36818","OBJECT_ID":"2026-035A","EPOCH":"2026-03-02T22:00:01.999584","MEAN_MOTION":16.01458116,"ECCENTRICITY":0.00012225,"INCLINATION":97.2793,"RA_OF_ASC_NODE":353.7074,"ARG_OF_PERICENTER":107.8353,"MEAN_ANOMALY":93.8782,"EPHEMERIS_TYPE":0,"CLASSIFICATION_TYPE":"U","NORAD_CAT_ID":67879,"ELEMENT_SET_NO":999,"REV_AT_EPOCH":266,"BSTAR":-0.0017204853,"MEAN_MOTION_DOT":-0.00944917,"MEAN_MOTION_DDOT":0.00030002921},{"OBJECT_NAME":"STARLINK-36821","OBJECT_ID":"2026-035B","EPOCH":"2026-03-02T22:00:01.999584","MEAN_MOTION":16.01643432,"ECCENTRICITY":0.00010809,"INCLINATION":97.279,"RA_OF_ASC_NODE":353.7098,"ARG_OF_PERICENTER":99.7508,"MEAN_ANOMALY":107.3295,"EPHEMERIS_TYPE":0,"CLASSIFICATION_TYPE":"U","NORAD_CAT_ID":67880,"ELEMENT_SET_NO":999,"REV_AT_EPOCH":266,"BSTAR":-0.0017063035,"MEAN_MOTION_DOT":-0.00947161,"MEAN_MOTION_DDOT":0.00030199827},{"OBJECT_NAME":"STARLINK-36808","OBJECT_ID":"2026-035C","EPOCH":"2026-03-02T22:00:01.999584","MEAN_MOTION":16.01531058,"ECCENTRICITY":0.00011538,"INCLINATION":97.279,"RA_OF_ASC_NODE":353.7082,"ARG_OF_PERICENTER":104.0255,"MEAN_ANOMALY":99.69,"EPHEMERIS_TYPE":0,"CLASSIFICATION_TYPE":"U","NORAD_CAT_ID":67881,"ELEMENT_SET_NO":999,"REV_AT_EPOCH":266,"BSTAR":-0.001715502,"MEAN_MOTION_DOT":-0.0094613,"MEAN_MOTION_DDOT":0.0003009976},{"OBJECT_NAME":"STARLINK-36817","OBJECT_ID":"2026-035D","EPOCH":"2026-03-02T22:00:01.999584","MEAN_MOTION":16.01867459,"ECCENTRICITY":0.00011622,"INCLINATION":97.2783,"RA_OF_ASC_NODE":353.7122,"ARG_OF_PERICENTER":98.4604,"MEAN_ANOMALY":115.1855,"EPHEMERIS_TYPE":0,"CLASSIFICATION_TYPE":"U","NORAD_CAT_ID":67882,"ELEMENT_SET_NO":999,"REV_AT_EPOCH":266,"BSTAR":-0.0016919208,"MEAN_MOTION_DOT":-0.00951399,"MEAN_MOTION_DDOT":0.00030529754},{"OBJECT_NAME":"STARLINK-36856","OBJECT_ID":"2026-035E","EPOCH":"2026-03-02T22:00:01.999584","MEAN_MOTION":16.0176322,"ECCENTRICITY":0.00011487,"INCLINATION":97.2786,"RA_OF_ASC_NODE":353.7111,"ARG_OF_PERICENTER":103.9835,"MEAN_ANOMALY":106.6134,"EPHEMERIS_TYPE":0,"CLASSIFICATION_TYPE":"U","NORAD_CAT_ID":67883,"ELEMENT_SET_NO":999,"REV_AT_EPOCH":266,"BSTAR":-0.0017019346,"MEAN_MOTION_DOT":-0.00951274,"MEAN_MOTION_DDOT":0.00030485412},{"OBJECT_NAME":"STARLINK-36842","OBJECT_ID":"2026-035F","EPOCH":"2026-03-02T22:00:01.999584","MEAN_MOTION":16.0196767,"ECCENTRICITY":0.00010245,"INCLINATION":97.2783,"RA_OF_ASC_NODE":353.7136,"ARG_OF_PERICENTER":93.0263,"MEAN_ANOMALY":123.4441,"EPHEMERIS_TYPE":0,"CLASSIFICATION_TYPE":"U","NORAD_CAT_ID":67884,"ELEMENT_SET_NO":999,"REV_AT_EPOCH":266,"BSTAR":-0.0016746054,"MEAN_MOTION_DOT":-0.00947163,"MEAN_MOTION_DDOT":0.0003031353},{"OBJECT_NAME":"STARLINK-36826","OBJECT_ID":"2026-035G","EPOCH":"2026-03-02T22:00:01.999584","MEAN_MOTION":16.02050699,"ECCENTRICITY":0.00010561,"INCLINATION":97.2782,"RA_OF_ASC_NODE":353.7146,"ARG_OF_PERICENTER":94.2457,"MEAN_ANOMALY":124.4418,"EPHEMERIS_TYPE":0,"CLASSIFICATION_TYPE":"U","NORAD_CAT_ID":67885,"ELEMENT_SET_NO":999,"REV_AT_EPOCH":266,"BSTAR":-0.0016684529,"MEAN_MOTION_DOT":-0.00948235,"MEAN_MOTION_DDOT":0.00030406389},{"OBJECT_NAME":"STARLINK-36390","OBJECT_ID":"2026-035H","EPOCH":"2026-03-02T22:00:01.999584","MEAN_MOTION":16.02167837,"ECCENTRICITY":0.00010981,"INCLINATION":97.2779,"RA_OF_ASC_NODE":353.7159,"ARG_OF_PERICENTER":103.8006,"MEAN_ANOMALY":118.367,"EPHEMERIS_TYPE":0,"CLASSIFICATION_TYPE":"U","NORAD_CAT_ID":67886,"ELEMENT_SET_NO":999,"REV_AT_EPOCH":271,"BSTAR":-0.0016576863,"MEAN_MOTION_DOT":-0.0094855,"MEAN_MOTION_DDOT":0.00030466353},{"OBJECT_NAME":"STARLINK-36368","OBJECT_ID":"2026-035J","EPOCH":"2026-03-02T22:00:01.999584","MEAN_MOTION":16.0228036,"ECCENTRICITY":0.00011049,"INCLINATION":97.2778,"RA_OF_ASC_NODE":353.7173,"ARG_OF_PERICENTER":104.4232,"MEAN_ANOMALY":121.0357,"EPHEMERIS_TYPE":0,"CLASSIFICATION_TYPE":"U","NORAD_CAT_ID":67887,"ELEMENT_SET_NO":999,"REV_AT_EPOCH":266,"BSTAR":-0.0016392055,"MEAN_MOTION_DOT":-0.00944171,"MEAN_MOTION_DDOT":0.00030245694},{"OBJECT_NAME":"STARLINK-36801","OBJECT_ID":"2026-035K","EPOCH":"2026-03-02T22:00:01.999584","MEAN_MOTION":16.02407135,"ECCENTRICITY":0.00010416,"INCLINATION":97.2777,"RA_OF_ASC_NODE":353.7186,"ARG_OF_PERICENTER":103.1565,"MEAN_ANOMALY":125.4577,"EPHEMERIS_TYPE":0,"CLASSIFICATION_TYPE":"U","NORAD_CAT_ID":67888,"ELEMENT_SET_NO":999,"REV_AT_EPOCH":266,"BSTAR":-0.0016225644,"MEAN_MOTION_DOT":-0.00941527,"MEAN_MOTION_DDOT":0.00030133478},{"OBJECT_NAME":"STARLINK-36372","OBJECT_ID":"2026-035L","EPOCH":"2026-03-02T22:00:01.999584","MEAN_MOTION":16.02615009,"ECCENTRICITY":0.00010913,"INCLINATION":97.2772,"RA_OF_ASC_NODE":353.721,"ARG_OF_PERICENTER":106.599,"MEAN_ANOMALY":128.0518,"EPHEMERIS_TYPE":0,"CLASSIFICATION_TYPE":"U","NORAD_CAT_ID":67889,"ELEMENT_SET_NO":999,"REV_AT_EPOCH":266,"BSTAR":-0.0016101095,"MEAN_MOTION_DOT":-0.00945683,"MEAN_MOTION_DDOT":0.00030454278},{"OBJECT_NAME":"STARLINK-36363","OBJECT_ID":"2026-035M","EPOCH":"2026-03-02T22:00:01.999584","MEAN_MOTION":16.02523915,"ECCENTRICITY":0.0001137,"INCLINATION":97.2776,"RA_OF_ASC_NODE":353.7203,"ARG_OF_PERICENTER":107.877,"MEAN_ANOMALY":124.3253,"EPHEMERIS_TYPE":0,"CLASSIFICATION_TYPE":"U","NORAD_CAT_ID":67890,"ELEMENT_SET_NO":999,"REV_AT_EPOCH":266,"BSTAR":-0.0016250278,"MEAN_MOTION_DOT":-0.00949355,"MEAN_MOTION_DDOT":0.00030641105},{"OBJECT_NAME":"STARLINK-36816","OBJECT_ID":"2026-035N","EPOCH":"2026-03-02T22:00:01.999584","MEAN_MOTION":16.04270478,"ECCENTRICITY":8.744e-5,"INCLINATION":97.2748,"RA_OF_ASC_NODE":353.7393,"ARG_OF_PERICENTER":89.9153,"MEAN_ANOMALY":190.6244,"EPHEMERIS_TYPE":0,"CLASSIFICATION_TYPE":"U","NORAD_CAT_ID":67891,"ELEMENT_SET_NO":999,"REV_AT_EPOCH":255,"BSTAR":-0.0017246277,"MEAN_MOTION_DOT":-0.01115413,"MEAN_MOTION_DDOT":0.00042151937},{"OBJECT_NAME":"STARLINK-36813","OBJECT_ID":"2026-035P","EPOCH":"2026-03-02T22:00:01.999584","MEAN_MOTION":16.03587917,"ECCENTRICITY":9.965e-5,"INCLINATION":97.2753,"RA_OF_ASC_NODE":353.7305,"ARG_OF_PERICENTER":106.5533,"MEAN_ANOMALY":153.4825,"EPHEMERIS_TYPE":0,"CLASSIFICATION_TYPE":"U","NORAD_CAT_ID":67892,"ELEMENT_SET_NO":999,"REV_AT_EPOCH":266,"BSTAR":-0.0017191252,"MEAN_MOTION_DOT":-0.01068074,"MEAN_MOTION_DDOT":0.00038589437},{"OBJECT_NAME":"STARLINK-36803","OBJECT_ID":"2026-035Q","EPOCH":"2026-03-02T22:00:01.999584","MEAN_MOTION":16.02751756,"ECCENTRICITY":0.00010682,"INCLINATION":97.277,"RA_OF_ASC_NODE":353.7224,"ARG_OF_PERICENTER":110.7099,"MEAN_ANOMALY":127.7819,"EPHEMERIS_TYPE":0,"CLASSIFICATION_TYPE":"U","NORAD_CAT_ID":67893,"ELEMENT_SET_NO":999,"REV_AT_EPOCH":266,"BSTAR":-0.0015941619,"MEAN_MOTION_DOT":-0.00943852,"MEAN_MOTION_DDOT":0.00030393611},{"OBJECT_NAME":"STARLINK-36846","OBJECT_ID":"2026-035R","EPOCH":"2026-03-02T22:00:01.999584","MEAN_MOTION":16.03038443,"ECCENTRICITY":0.00011036,"INCLINATION":97.2768,"RA_OF_ASC_NODE":353.7259,"ARG_OF_PERICENTER":114.7774,"MEAN_ANOMALY":131.548,"EPHEMERIS_TYPE":0,"CLASSIFICATION_TYPE":"U","NORAD_CAT_ID":67894,"ELEMENT_SET_NO":999,"REV_AT_EPOCH":266,"BSTAR":-0.0015750394,"MEAN_MOTION_DOT":-0.00948321,"MEAN_MOTION_DDOT":0.00030764244}]
