STARLINK-36818          
1 67879U 26035A   26061.91668981 -.00944917  30003-3 -17205-2 0  9998
2 67879  97.2793 353.7074 0001222 107.8353  93.8782 16.01458116  2663
STARLINK-36821          
1 67880U 26035B   26061.91668981 -.00947161  30200-3 -17063-2 0  9995
2 67880  97.2790 353.7098 0001080  99.7508 107.3295 16.01643432  2668
STARLINK-36808          
1 67881U 26035C   26061.91668981 -.00946130  30100-3 -17155-2 0  9992
2 67881  97.2790 353.7082 0001153 104.0255  99.6900 16.01531058  2668
STARLINK-36817          
1 67882U 26035D   26061.91668981 -.00951399  30530-3 -16919-2 0  9990
2 67882  97.2783 353.7122 0001162  98.4604 115.1855 16.01867459  2660
STARLINK-36856          
1 67883U 26035E   26061.91668981 -.00951274  30485-3 -17019-2 0  9994
2 67883  97.2786 353.7111 0001148 103.9835 106.6134 16.01763220  2660
STARLINK-36842          
1 67884U 26035F   26061.91668981 -.00947163  30314-3 -16746-2 0  9994
2 67884  97.2783 353.7136 0001024  93.0263 123.4441 16.01967670  2665
STARLINK-36826          
1 67885U 26035G   26061.91668981 -.00948235  30406-3 -16685-2 0  9990
2 67885  97.2782 353.7146 0001056  94.2457 124.4418 16.02050699  2669
STARLINK-36390          
1 67886U 26035H   26061.91668981 -.00948550  30466-3 -16577-2 0  9997
2 67886  97.2779 353.7159 0001098 103.8006 118.3670 16.02167837  2714
STARLINK-36368          
1 67887U 26035J   26061.91668981 -.00944171  30246-3 -16392-2 0  9994
2 67887  97.2778 353.7173 0001104 104.4232 121.0357 16.02280360  2660
STARLINK-36801          
1 67888U 26035K   26061.91668981 -.00941527  30133-3 -16226-2 0  9998
2 67888  97.2777 353.7186 0001041 103.1565 125.4577 16.02407135  2662
STARLINK-36372          
1 67889U 26035L   26061.91668981 -.00945683  30454-3 -16101-2 0  9994
2 67889  97.2772 353.7210 0001091 106.5990 128.0518 16.02615009  2665
STARLINK-36363          
1 67890U 26035M   26061.91668981 -.00949355  30641-3 -16250-2 0  9999
2 67890  97.2776 353.7203 0001137 107.8770 124.3253 16.02523915  2663
STARLINK-36816          
1 67891U 26035N   26061.91668981 -.01115413  42152-3 -17246-2 0  9997
2 67891  97.2748 353.7393 0000874  89.9153 190.6244 16.04270478  2554
STARLINK-36813          
1 67892U 26035P   26061.91668981 -.01068074  38589-3 -17191-2 0  9996
2 67892  97.2753 353.7305 0000996 106.5533 153.4825 16.03587917  2669
STARLINK-36803          
1 67893U 26035Q   26061.91668981 -.00943852  30394-3 -15942-2 0  9990
2 67893  97.2770 353.7224 0001068 110.7099 127.7819 16.02751756  2664
STARLINK-36846          
1 67894U 26035R   26061.91668981 -.00948321  30764-3 -15750-2 0  9995
2 67894  97.2768 353.7259 0001103 114.7774 131.5480 16.03038443  2663
